[{"tle0":"AKEBONO (EXOS-D)","tle1":"1 19822U 89016A   23303.86905783  .00274930  90478-5  26656-2 0  9998","tle2":"2 19822  74.9526 234.1902 1067794   1.0515 359.2504 13.60417823194113","tle_source":"Celestrak (SatNOGS)","sat_id":"PXJB-4861-7434-2589-7103","norad_cat_id":19822,"updated":"2023-10-31T00:41:02.742043+0000"},{"tle0":"PEGASUS R/B","tle1":"1 22491U 93009C   23303.54383976  .00001935  00000+0  39243-3 0  9996","tle2":"2 22491  24.9788   1.5421 0046392 208.9352 150.8582 14.54710612629427","tle_source":"Celestrak (SatNOGS)","sat_id":"CRVV-4364-0511-9206-7102","norad_cat_id":22491,"updated":"2023-10-31T04:41:03.455253+0000"},{"tle0":"NOAA 2 (ITOS-D)","tle1":"1 06235U 72082A   23303.85079531 -.00000026  00000+0  12699-3 0  9992","tle2":"2 06235 102.0047 295.2957 0003832 196.9520 226.5100 12.53169817334659","tle_source":"Celestrak (SatNOGS)","sat_id":"CLVL-1708-0584-5360-1752","norad_cat_id":6235,"updated":"2023-10-31T04:41:03.439855+0000"},{"tle0":"2022-019G","tle1":"1 51830U 22019G   23304.20760537  .00032365  00000+0  12276-2 0  9991","tle2":"2 51830  97.4572  17.3073 0011607 318.0856  41.9493 15.26735273 92541","tle_source":"Celestrak (SatNOGS)","sat_id":"PQVW-3916-5354-0898-9930","norad_cat_id":51830,"updated":"2023-10-31T08:40:59.434707+0000"},{"tle0":"BRIK-II","tle1":"1 48876U 21058F   23303.46960508  .00012391  00000+0  44304-3 0  9991","tle2":"2 48876  60.6748 270.0713 0022601 154.5239 205.6970 15.28981883129707","tle_source":"Celestrak (active)","sat_id":"NGSK-3447-7758-0612-8050","norad_cat_id":48876,"updated":"2023-10-31T04:41:03.775776+0000"},{"tle0":"LEMUR-2-SCHMIDTFALL","tle1":"1 46315U 20061AV  23304.19441968  .00238489  00000+0  14751-2 0  9995","tle2":"2 46315  97.3870  24.9736 0006910 215.4789 144.6017 15.76388663175445","tle_source":"Celestrak (active)","sat_id":"NJBP-5833-6064-1212-5637","norad_cat_id":46315,"updated":"2023-10-31T08:40:59.644823+0000"},{"tle0":"UK-DMC 2","tle1":"1 35683U 09041C   23304.10966228  .00001673  00000+0  27076-3 0  9996","tle2":"2 35683  97.7511  96.8341 0001618  91.6353 268.5040 14.72520615765142","tle_source":"Celestrak (SatNOGS)","sat_id":"SFQG-9131-2333-4297-1025","norad_cat_id":35683,"updated":"2023-10-31T08:40:59.655371+0000"},{"tle0":"DMC3-FM1","tle1":"1 40715U 15032A   23304.20727881  .00001322  00000+0  16882-3 0  9990","tle2":"2 40715  97.7777 184.4993 0005269 339.8154  20.2851 14.83043124447481","tle_source":"Celestrak (active)","sat_id":"TZFO-2462-6073-7326-5070","norad_cat_id":40715,"updated":"2023-10-31T08:40:59.671541+0000"},{"tle0":"DMC3-FM2","tle1":"1 40716U 15032B   23304.09491707  .00001409  00000+0  17967-3 0  9994","tle2":"2 40716  97.7826 185.3128 0007192 340.1761  19.9172 14.83009346447460","tle_source":"Celestrak (active)","sat_id":"UHJI-5533-5746-3160-7005","norad_cat_id":40716,"updated":"2023-10-31T08:40:59.686813+0000"},{"tle0":"DMC3-FM3","tle1":"1 40717U 15032C   23304.18501511  .00001361  00000+0  17354-3 0  9997","tle2":"2 40717  97.7870 186.5479 0008630 335.5953  24.4851 14.83060466447488","tle_source":"Celestrak (active)","sat_id":"LVGA-1990-6472-1783-9498","norad_cat_id":40717,"updated":"2023-10-31T08:40:59.702137+0000"},{"tle0":"SSTL S1-4","tle1":"1 43618U 18071A   23304.18053963  .00002776  00000+0  25952-3 0  9993","tle2":"2 43618  97.6273 192.3265 0009351 127.5593 232.6479 14.94891393279446","tle_source":"Celestrak (SatNOGS)","sat_id":"OUCL-2330-8228-7656-1815","norad_cat_id":43618,"updated":"2023-10-31T08:40:59.713565+0000"},{"tle0":"PTD-3 (TYVAK-0125)","tle1":"1 52734U 22057C   23304.09075649  .00037741  00000+0  90536-3 0  9996","tle2":"2 52734  97.5474  66.7078 0007169 206.4128 153.6753 15.41265789 79733","tle_source":"Celestrak (SatNOGS)","sat_id":"FVQK-9364-9993-2294-9710","norad_cat_id":52734,"updated":"2023-10-31T08:40:59.726638+0000"},{"tle0":"CENTAURI-4 (TYVAK-0211)","tle1":"1 48898U 21059V   23303.92064846  .00055376  00000+0  11785-2 0  9993","tle2":"2 48898  97.6057  86.0547 0005655 148.0661 212.0931 15.44765010130296","tle_source":"Celestrak (active)","sat_id":"AXQA-7364-6026-4427-9296","norad_cat_id":48898,"updated":"2023-10-31T04:41:00.489827+0000"},{"tle0":"OP15 FLT2 (TYVAK-0821)","tle1":"1 52735U 22057D   23303.90813190  .00037682  00000+0  13044-2 0  9999","tle2":"2 52735  97.5511  61.6114 0005983 234.9519 125.1160 15.29753845 79381","tle_source":"Celestrak (active)","sat_id":"XMXN-2540-2443-8416-5019","norad_cat_id":52735,"updated":"2023-10-31T04:41:03.972907+0000"},{"tle0":"CENTAURI 5 (TYVAK-0212)","tle1":"1 52742U 22057L   23303.87626916  .00032059  00000+0  94470-3 0  9997","tle2":"2 52742  97.5516  63.3446 0004658 212.2367 147.8592 15.34960199 79499","tle_source":"Celestrak (active)","sat_id":"PWFW-2275-1349-5417-9753","norad_cat_id":52742,"updated":"2023-10-31T04:41:03.992389+0000"},{"tle0":"MOHAMMED VI-B","tle1":"1 43717U 18095A   23304.20589668  .00001538  00000+0  22508-3 0  9997","tle2":"2 43717  97.9623  14.2698 0001037  94.8968 265.2360 14.77069913266314","tle_source":"Celestrak (SatNOGS)","sat_id":"UHIU-8294-7358-6980-6488","norad_cat_id":43717,"updated":"2023-10-31T08:40:59.799465+0000"},{"tle0":"MOHAMMED VI-A","tle1":"1 43005U 17070A   23304.17199741  .00001499  00000+0  21948-3 0  9997","tle2":"2 43005  97.9431  14.2641 0001335  86.2849 273.8514 14.77069830322264","tle_source":"Celestrak (active)","sat_id":"QZWH-4411-8475-9696-2703","norad_cat_id":43005,"updated":"2023-10-31T08:40:59.785589+0000"},{"tle0":"JILIN-1 GAOFEN 03D10","tle1":"1 51840U 22019S   23304.18747733  .00013321  00000+0  63317-3 0  9996","tle2":"2 51840  97.4612  15.5892 0012030 321.7386  38.2994 15.19267876 92418","tle_source":"Celestrak (SatNOGS)","sat_id":"CDHE-8871-2737-3559-5609","norad_cat_id":51840,"updated":"2023-10-31T08:40:59.812826+0000"},{"tle0":"CARBONITE 1 (CBNT-1)","tle1":"1 40718U 15032D   23304.12868130  .00002938  00000+0  42111-3 0  9995","tle2":"2 40718  97.6743 150.3941 0015581 187.6153 172.4823 14.77183280447285","tle_source":"Celestrak (active)","sat_id":"FVQW-6115-3664-2527-3197","norad_cat_id":40718,"updated":"2023-10-31T08:40:59.838585+0000"},{"tle0":"TIANQI-2","tle1":"1 44488U 19052C   23304.18021763  .00025362  00000+0  10161-2 0  9993","tle2":"2 44488  97.4415  13.4077 0016037  20.5812 339.6068 15.24902272231912","tle_source":"Celestrak (SatNOGS)","sat_id":"GZWQ-2610-2979-8757-6077","norad_cat_id":44488,"updated":"2023-10-31T08:40:57.610638+0000"},{"tle0":"CARBONITE 2","tle1":"1 43115U 18004E   23304.17133399  .00013494  00000+0  41071-3 0  9991","tle2":"2 43115  97.3008  12.0514 0008418  34.5014 325.6774 15.34090966322592","tle_source":"Celestrak (SatNOGS)","sat_id":"DUVR-6579-0336-4357-6373","norad_cat_id":43115,"updated":"2023-10-31T08:40:59.862594+0000"},{"tle0":"BEIHANGKONGSHI 1","tle1":"1 46838U 20079M   23304.03020925  .00286177  00000+0  13272-2 0  9997","tle2":"2 46838  97.1338  19.3152 0003776 271.1899  88.8938 15.82682039167825","tle_source":"Celestrak (SatNOGS)","sat_id":"RAJP-5907-7976-7915-4438","norad_cat_id":46838,"updated":"2023-10-31T08:40:59.886957+0000"},{"tle0":"STEP CUBE LAB-II","tle1":"1 52897U 22065D   23304.15356864  .00001738  00000+0  37553-3 0  9990","tle2":"2 52897  98.0901  85.3180 0009711 143.7256 216.4604 14.59488039 71261","tle_source":"Celestrak (active)","sat_id":"ODFG-1778-1250-1047-4122","norad_cat_id":52897,"updated":"2023-10-31T08:40:59.917623+0000"},{"tle0":"RANDEV","tle1":"1 52898U 22065E   23304.19277361  .00001911  00000+0  41081-3 0  9993","tle2":"2 52898  98.0897  85.4144 0008979 145.3147 214.8640 14.59617722 70993","tle_source":"Celestrak (active)","sat_id":"LYKB-5376-2648-5150-0020","norad_cat_id":52898,"updated":"2023-10-31T08:40:59.972416+0000"},{"tle0":"CTIM","tle1":"1 52950U 22074G   23303.75264312  .00269198  00000+0  19944-2 0  9990","tle2":"2 52950  44.9975 310.5872 0013672  70.6530 289.5846 15.71256335 74671","tle_source":"Celestrak (active)","sat_id":"CSGC-5605-1718-3109-5402","norad_cat_id":52950,"updated":"2023-10-31T04:41:02.918195+0000"},{"tle0":"SNUGLITE-II","tle1":"1 52899U 22065F   23303.89345804  .00002277  00000+0  48604-3 0  9992","tle2":"2 52899  98.0890  85.1563 0008501 146.2774 213.8968 14.59776081 70655","tle_source":"Celestrak (active)","sat_id":"YFNZ-9504-4902-9033-1722","norad_cat_id":52899,"updated":"2023-10-31T04:41:04.288400+0000"},{"tle0":"AISSAT 1","tle1":"1 36797U 10035C   23304.18571400  .00003474  00000+0  37072-3 0  9998","tle2":"2 36797  98.2104 152.0858 0010208 346.1297  13.9637 14.89505586721044","tle_source":"Celestrak (SatNOGS)","sat_id":"RLHS-9707-5174-8281-4742","norad_cat_id":36797,"updated":"2023-10-31T08:41:00.045905+0000"},{"tle0":"STARLINK-2342","tle1":"1 47883U 21021Z   23303.91558256  .00004480  00000+0  31953-3 0  9997","tle2":"2 47883  53.0530 180.7846 0001677  88.6245 271.4936 15.06392723146557","tle_source":"Celestrak (active)","sat_id":"TZRH-5939-4568-4178-0982","norad_cat_id":47883,"updated":"2023-10-31T04:41:04.440830+0000"},{"tle0":"SPACEBEE-100","tle1":"1 48883U 21059E   23303.92697133  .00093920  00000+0  19284-2 0  9997","tle2":"2 48883  97.6073  85.3880 0003177 172.6342 187.4954 15.45665761130244","tle_source":"Celestrak (active)","sat_id":"FXLH-9027-2252-9657-3207","norad_cat_id":48883,"updated":"2023-10-31T04:41:04.412818+0000"},{"tle0":"0 FOSSASAT2E12","tle1":"1 52773U 22057AT  23302.52351642  .02812462  15267-1  37512-2 0  9995","tle2":"2 52773  97.4903  69.8575 0011227 280.1336  79.8681 16.10437572 79791","tle_source":"Space-Track.org","sat_id":"MYQU-2688-4982-5356-0669","norad_cat_id":52773,"updated":"2023-10-29T20:40:55.298161+0000"},{"tle0":"AIS & APRS & ARIS & R/B","tle1":"1 44104U 19018AC  23304.20676727  .00044116  00000+0  64168-3 0  9994","tle2":"2 44104  97.3724  38.7005 0033725 119.5824 240.8799 15.54959608256790","tle_source":"Celestrak (SatNOGS)","sat_id":"REOV-6010-1704-2080-0327","norad_cat_id":44104,"updated":"2023-10-31T08:40:51.658593+0000"}]